METEOSAT-10 (MSG-3)     
1 38552U 12035B   22350.80630366  .00000085  00000+0  00000+0 0  9999
2 38552   1.8227  50.0073 0001136 185.2384 149.9513  1.00269534 38038
METOP-B                 
1 38771U 12049A   22351.14838560  .00000117  00000+0  73565-4 0  9998
2 38771  98.7067  48.3249 0000905 133.8467 311.2664 14.21485370531682
FENGYUN 3C              
1 39260U 13052A   22351.07852080  .00000101  00000+0  72023-4 0  9993
2 39260  98.4400   9.8212 0012144 106.6056 253.6463 14.15967415477768
METEOR-M 2              
1 40069U 14037A   22351.22193822  .00000017  00000+0  27071-4 0  9994
2 40069  98.4261   0.6393 0006277 142.4340 217.7282 14.20729993437810
HIMAWARI-8              
1 40267U 14060A   22350.90416781 -.00000250  00000+0  00000+0 0  9994
2 40267   0.0281 217.9276 0001192  59.4866 274.2476  1.00275091 30041
FENGYUN 2G              
1 40367U 14090A   22350.82417247 -.00000275  00000+0  00000+0 0  9994
2 40367   2.3906  87.5977 0002175 223.2143 170.5842  1.00263421 29183
METEOSAT-11 (MSG-4)     
1 40732U 15034A   22350.80447319  .00000020  00000+0  00000+0 0  9997
2 40732   0.4734 354.6150 0000578 109.1337 271.2825  1.00272586 27203
ELEKTRO-L 2             
1 41105U 15074A   22350.87331142 -.00000091  00000+0  00000+0 0  9998
2 41105   3.4463  85.9749 0002748 150.1542 149.3065  1.00272316 25696
HIMAWARI-9              
1 41836U 16064A   22350.88198601 -.00000250  00000+0  00000+0 0  9998
2 41836   0.0509 130.9762 0001410 167.0119 245.7940  1.00270975 22373
GOES 16                 
1 41866U 16071A   22350.21562308 -.00000225  00000+0  00000+0 0  9997
2 41866   0.0665 251.5078 0000873  53.0026 142.7759  1.00271242 22284
FENGYUN 4A              
1 41882U 16077A   22350.89702029 -.00000306  00000+0  00000+0 0  9991
2 41882   0.0370 325.8505 0005393  78.2303 109.0260  1.00273996 22162
CYGFM05                 
1 41884U 16078A   22350.82440833  .00004711  00000+0  23018-3 0  9990
2 41884  34.9548 145.1185 0015231 286.1302  73.7733 15.17545605332499
CYGFM04                 
1 41885U 16078B   22350.74537918  .00004533  00000+0  21819-3 0  9992
2 41885  34.9482 133.8012 0013668 303.3047  56.6356 15.18100318332535
CYGFM02                 
1 41886U 16078C   22350.73154728  .00004981  00000+0  23925-3 0  9993
2 41886  34.9573 136.1556 0014300 297.2721  62.6535 15.18141970332614
CYGFM01                 
1 41887U 16078D   22350.84998402  .00004221  00000+0  20759-3 0  9990
2 41887  34.9514 147.6486 0015717 285.5219  74.3758 15.17342506332449
CYGFM08                 
1 41888U 16078E   22350.77685135  .00004570  00000+0  22149-3 0  9991
2 41888  34.9485 139.8766 0014878 297.4712  62.4487 15.17837997332572
CYGFM06                 
1 41889U 16078F   22350.84094625  .00011125  00000+0  52975-3 0  9992
2 41889  34.9566 134.1104 0013410 298.4236  61.5125 15.18291672332574
CYGFM07                 
1 41890U 16078G   22350.76839274  .00004831  00000+0  23255-3 0  9997
2 41890  34.9505 133.4428 0013162 302.0521  57.8913 15.18084570332540
CYGFM03                 
1 41891U 16078H   22350.76693954  .00004749  00000+0  22866-3 0  9996
2 41891  34.9537 133.9678 0012686 299.8435  60.1016 15.18087564332531
FENGYUN 3D              
1 43010U 17072A   22351.16456902  .00000117  00000+0  77357-4 0  9992
2 43010  98.8383 295.0228 0002308 100.3439 259.8006 14.19119004263685
NOAA 20                 
1 43013U 17073A   22351.05997098  .00000090  00000+0  63458-4 0  9997
2 43013  98.7355 286.8848 0000608 107.5615 252.5627 14.19536340263133
GOES 17                 
1 43226U 18022A   22350.99229156  .00000123  00000+0  00000+0 0  9999
2 43226   0.0366 151.9069 0000433 123.9838  29.6170  1.00272016 17618
FENGYUN 2H              
1 43491U 18050A   22350.89187757 -.00000103  00000+0  00000+0 0  9992
2 43491   1.6088  93.8941 0002380  74.2065 317.5256  1.00275870 16698
METOP-C                 
1 43689U 18087A   22351.16837264  .00000115  00000+0  72818-4 0  9990
2 43689  98.7113  48.3889 0002608 211.9964 148.1055 14.21491302213264
GEO-KOMPSAT-2A          
1 43823U 18100A   22346.38288764 -.00000327  00000+0  00000+0 0  9994
2 43823   0.0556 125.5537 0000104 331.7783 249.8502  1.00270684 14758
METEOR-M2 2             
1 44387U 19038A   22351.15622340  .00000037  00000+0  35607-4 0  9997
2 44387  98.7497 310.6952 0002302  95.7839 264.3609 14.23734851179405
FENGYUN 3E              
1 49008U 21062A   22351.11385766  .00000016  00000+0  27984-4 0  9992
2 49008  98.7170 350.2456 0002043 151.8430 208.2870 14.19748985 75231
GOES 18                 
1 51850U 22021A   22351.06411545  .00000121  00000+0  00000+0 0  9997
2 51850   0.0277 182.4829 0001176  74.7527  74.6055  1.00272313  2983
NOAA 21 (JPSS-2)        
1 54234U 22150A   22350.79780489  .00000194  00000+0  10749-3 0  9999
2 54234  98.6998 286.7720 0012396 137.6681 222.5456 14.22100768  5174
EUTELSAT 10B            
1 54259U 22157A   22347.63101023 -.00000173  00000+0  33303-1 0  9990
2 54259  18.0468 294.5941 7870251 184.1688 159.0292  1.11012561   257
FALCON 9 R/B            
1 54260U 22157B   22347.47946354  .00003124  00000+0  14830-2 0  9991
2 54260  22.4719 294.2886 8185158 184.9727 151.8453  1.25051460   255
EOS-6 (OCEANSAT-3)      
1 54361U 22158A   22350.10248976 -.00001597  00000+0 -44538-3 0  9996
2 54361  98.3544  84.5964 0008660 167.2181 192.9130 14.45007059  2862
2022-158B               
1 54362U 22158B   22351.11291992  .00004669  00000+0  23903-3 0  9999
2 54362  97.4620  86.1415 0024244 173.8791 305.7751 15.16845849  3144
THYBOLT-1               
1 54363U 22158C   22351.13464258  .00014392  00000+0  67798-3 0  9993
2 54363  97.4482  86.0592 0011668 183.1011 243.9487 15.19560546  3152
THYBOLT-2               
1 54364U 22158D   22351.07900524  .00014251  00000+0  67144-3 0  9997
2 54364  97.4483  86.0064 0011376 183.6796 299.7130 15.19562096  3144
INS-2B                  
1 54365U 22158E   22351.14036177  .00013639  00000+0  63857-3 0  9996
2 54365  97.4434  86.0532 0011446 193.1864 283.2692 15.19789734  3153
ANAND                   
1 54366U 22158F   22351.13831201  .00011523  00000+0  53802-3 0  9996
2 54366  97.4419  86.0490 0010478 192.2474 287.0866 15.19935512  3153
ASTROCAST-0304          
1 54367U 22158G   22351.13284904  .00006981  00000+0  32490-3 0  9991
2 54367  97.4462  86.0768 0008460 189.7669 288.0240 15.20217201  3141
ASTROCAST-0303          
1 54368U 22158H   22351.12565447  .00005680  00000+0  26437-3 0  9994
2 54368  97.4486  86.0804 0008357 197.4523 247.4651 15.20296381  3151
ASTROCAST-0302          
1 54369U 22158J   22351.25514697  .00008368  00000+0  38485-3 0  9992
2 54369  97.4473  86.2123 0008339 203.8038 241.5008 15.20568613  3170
ASTROCAST-0301          
1 54370U 22158K   22351.12720234  .00010854  00000+0  49611-3 0  9992
2 54370  97.4477  86.0928 0008647 212.7459 265.1164 15.20702249  3153
DRAGON CRS-26           
1 54371U 22159A   22350.74481481  .00011585  00000+0  21072-3 0  9992
2 54371  51.6429 152.2268 0003674 167.4219  24.7484 15.49990966373498
2022-160A               
1 54372U 22160A   22351.06481502  .00012403  00000+0  52203-3 0  9995
2 54372  34.9965 104.9079 0005311  35.5290 133.8360 15.22567288  2982
2022-160B               
1 54373U 22160B   22351.05651788  .00024179  00000+0  97499-3 0  9999
2 54373  34.9980 104.8451 0008011  67.3092 100.1290 15.23889473  2989
2022-160C               
1 54374U 22160C   22351.06801919  .00009257  00000+0  39200-3 0  9990
2 54374  34.9972 104.9346 0005688  35.5345 134.0044 15.22406814  2942
2022-160D               
1 54375U 22160D   22351.25411715  .00027263  00000+0  10866-2 0  9996
2 54375  34.9989 103.5414 0007899  77.6991 117.7319 15.24259087  3014
2022-160E               
1 54376U 22160E   22351.00007652  .00015118  00000+0  63860-3 0  9990
2 54376  34.9983 105.3678 0007321  66.2824  88.2033 15.22403713  2974
COSMOS 2564 [GLONASS-M] 
1 54377U 22161A   22343.65354395  .00000039  00000+0  00000+0 0  9992
2 54377  64.7779 235.5578 0027076 231.7607 268.2837  2.13730792   236
FREGAT R/B              
1 54378U 22161B   22332.88538517  .00000006  00000+0  00000+0 0  9990
2 54378  64.7543 235.8312 0069964  61.3586  78.3433  2.10629160    00
SHENZHOU-15             
1 54379U 22162A   22350.60165439  .00019438  00000+0  23872-3 0  9996
2 54379  41.4743 188.3516 0004050 124.4806 336.7938 15.59823066 93285
COSMOS 2565             
1 54381U 22163A   22351.13471866  .00000000  00000+0  54041-4 0  9991
2 54381  67.1546 333.5553 0007114 264.5677  95.4548 13.96672650  2292
SL-4 R/B                
1 54382U 22163B   22351.23085483  .00120247  71990-5  61075-3 0  9991
2 54382  67.1318 326.4467 0451424  77.1418 287.9746 15.05941902  2461
2022-163C               
1 54383U 22163C   22351.20165750 -.00000169  00000+0 -66765-4 0  9997
2 54383  67.1445 333.3595 0010814 318.4156  41.6065 13.97181957  1997
1998-067UL              
1 54534U 98067UL  22350.57113505  .00046100  00000+0  76653-3 0  9990
2 54534  51.6403 152.9710 0006393 177.7003 182.4017 15.51572939  2263
1998-067UM              
1 54535U 98067UM  22350.91595418  .00053143  00000+0  87599-3 0  9992
2 54535  51.6433 151.2472 0007241 177.4570 313.1272 15.51748653  2313
1998-067UN              
1 54536U 98067UN  22351.04057007  .00041575  00000+0  69373-3 0  9991
2 54536  51.6434 150.6400 0006838 176.7114 285.6387 15.51517782  2290
1998-067UP              
1 54537U 98067UP  22351.18126856  .00046304  00000+0  76707-3 0  9990
2 54537  51.6429 149.9304 0007364 179.4547 353.2551 15.51668165  2358
2022-164A               
1 54588U 22164A   22351.20853652  .00001182  00000+0  35430-3 0  9998
2 54588  98.3563  18.4200 0008730 246.1872 113.8427 14.44534540  1471
KZ-11 R/B               
1 54589U 22164B   22350.91852177  .00017318  21809-5  19547-3 0  9992
2 54589  98.3690  19.1825 0380608  72.2198 292.0172 15.07756264  1498
